ORBCOMM FM05            
1 25117U 97084F   24336.11952431  .00004437  00000+0  13108-2 0  9990
2 25117  45.0142 238.1501 0002274 324.7365  35.3335 14.44585736412892
ORBCOMM FM06            
1 25118U 97084G   24336.15496174  .00005470  00000+0  16004-2 0  9998
2 25118  45.0134 237.9690 0001515 344.3456 131.0750 14.44764563412898
ORBCOMM FM07            
1 25119U 97084H   24336.13874676  .00004876  00000+0  14351-2 0  9996
2 25119  45.0129 238.7387 0002787 310.2541  49.8066 14.44629475412881
ORBCOMM FM04            
1 25159U 98007C   24335.76377487  .00004143  00000+0  15180-2 0  9990
2 25159 107.9658  91.3080 0044268 234.7442 124.9551 14.33756900395777
ORBCOMM FM17            
1 25413U 98046A   24336.08948661  .00003254  00000+0  11979-2 0  9994
2 25413  44.9925 112.0032 0002682 264.2366  95.8174 14.34284320374892
ORBCOMM FM18            
1 25414U 98046B   24336.22239207  .00003931  00000+0  13488-2 0  9999
2 25414  44.9942  33.8537 0004459 332.0013  28.0595 14.37436712375926
ORBCOMM FM19            
1 25415U 98046C   24336.22142223  .00004178  00000+0  14354-2 0  9998
2 25415  44.9952  35.5516 0003744 316.1721  89.7754 14.37263048375919
